ONEWEB-0228             
1 48780U 21045P   23184.74407643 -.00000085  00000+0 -25888-3 0  9990
2 48780  87.9025 114.1405 0001991  74.3796 285.7554 13.15546429103530
